{
  "type": "FeatureCollection",
  "features": [
    {
      "type": "Feature",
      "properties": {
        "segment_id": "SEG_0001",
        "segment_name": "SEG_0001",
        "lat": 10.766083,
        "lon": 106.682186,
        "fallback": true,
        "congestion_level": "red",
        "data_source": "centroid_fallback",
        "congestion_color": "#ff4444",
        "avg_vehicles": 26.0,
        "avg_cars": 6.4,
        "avg_motorcycles": 18.0,
        "avg_buses": 0.9333333333333332,
        "avg_trucks": 0.6666666666666666,
        "last_update": "2025-12-18 07:30:00"
      },
      "geometry": {
        "type": "Polygon",
        "coordinates": [
          [
            [
              106.68068600000001,
              10.764583
            ],
            [
              106.683686,
              10.764583
            ],
            [
              106.683686,
              10.767583
            ],
            [
              106.68068600000001,
              10.767583
            ],
            [
              106.68068600000001,
              10.764583
            ]
          ]
        ]
      }
    },
    {
      "type": "Feature",
      "properties": {
        "segment_id": "SEG_0002",
        "segment_name": "SEG_0002",
        "lat": 10.751647,
        "lon": 106.685,
        "fallback": true,
        "congestion_level": "green",
        "data_source": "centroid_fallback",
        "congestion_color": "#00C851",
        "avg_vehicles": 1.5,
        "avg_cars": 1.0,
        "avg_motorcycles": 0.0,
        "avg_buses": 0.0,
        "avg_trucks": 0.5,
        "last_update": "2025-12-18 01:00:00"
      },
      "geometry": {
        "type": "Polygon",
        "coordinates": [
          [
            [
              106.68350000000001,
              10.750147
            ],
            [
              106.6865,
              10.750147
            ],
            [
              106.6865,
              10.753147
            ],
            [
              106.68350000000001,
              10.753147
            ],
            [
              106.68350000000001,
              10.750147
            ]
          ]
        ]
      }
    },
    {
      "type": "Feature",
      "properties": {
        "segment_id": "SEG_0003",
        "segment_name": "SEG_0003",
        "lat": 10.799514666666669,
        "lon": 106.639976,
        "fallback": true,
        "congestion_level": "green",
        "data_source": "centroid_fallback",
        "congestion_color": "#00C851",
        "avg_vehicles": 1.0,
        "avg_cars": 0.3333333333333333,
        "avg_motorcycles": 0.6666666666666666,
        "avg_buses": 0.0,
        "avg_trucks": 0.0,
        "last_update": "2025-12-18 01:00:00"
      },
      "geometry": {
        "type": "Polygon",
        "coordinates": [
          [
            [
              106.63847600000001,
              10.798014666666669
            ],
            [
              106.641476,
              10.798014666666669
            ],
            [
              106.641476,
              10.801014666666669
            ],
            [
              106.63847600000001,
              10.801014666666669
            ],
            [
              106.63847600000001,
              10.798014666666669
            ]
          ]
        ]
      }
    },
    {
      "type": "Feature",
      "properties": {
        "segment_id": "SEG_0004",
        "segment_name": "SEG_0004",
        "lat": 10.8086265,
        "lon": 106.6738855,
        "fallback": true,
        "congestion_level": "green",
        "data_source": "centroid_fallback",
        "congestion_color": "#00C851",
        "avg_vehicles": 6.833333333333333,
        "avg_cars": 2.0,
        "avg_motorcycles": 4.166666666666667,
        "avg_buses": 0.3333333333333333,
        "avg_trucks": 0.3333333333333333,
        "last_update": "2025-12-18 00:45:00"
      },
      "geometry": {
        "type": "Polygon",
        "coordinates": [
          [
            [
              106.6723855,
              10.8071265
            ],
            [
              106.67538549999999,
              10.8071265
            ],
            [
              106.67538549999999,
              10.8101265
            ],
            [
              106.6723855,
              10.8101265
            ],
            [
              106.6723855,
              10.8071265
            ]
          ]
        ]
      }
    },
    {
      "type": "Feature",
      "properties": {
        "segment_id": "SEG_0005",
        "segment_name": "SEG_0005",
        "lat": 10.80026525,
        "lon": 106.666838,
        "fallback": true,
        "congestion_level": "green",
        "data_source": "centroid_fallback",
        "congestion_color": "#00C851",
        "avg_vehicles": 10.166666666666666,
        "avg_cars": 6.333333333333333,
        "avg_motorcycles": 2.9166666666666665,
        "avg_buses": 0.4166666666666667,
        "avg_trucks": 0.5,
        "last_update": "2025-12-18 00:45:00"
      },
      "geometry": {
        "type": "Polygon",
        "coordinates": [
          [
            [
              106.665338,
              10.79876525
            ],
            [
              106.66833799999999,
              10.79876525
            ],
            [
              106.66833799999999,
              10.80176525
            ],
            [
              106.665338,
              10.80176525
            ],
            [
              106.665338,
              10.79876525
            ]
          ]
        ]
      }
    },
    {
      "type": "Feature",
      "properties": {
        "segment_id": "SEG_0006",
        "segment_name": "SEG_0006",
        "lat": 10.806588,
        "lon": 106.635489,
        "fallback": true,
        "congestion_level": "green",
        "data_source": "centroid_fallback",
        "congestion_color": "#00C851",
        "avg_vehicles": 8.0,
        "avg_cars": 6.0,
        "avg_motorcycles": 0.0,
        "avg_buses": 1.0,
        "avg_trucks": 1.0,
        "last_update": "2025-12-18 01:00:00"
      },
      "geometry": {
        "type": "Polygon",
        "coordinates": [
          [
            [
              106.63398900000001,
              10.805088
            ],
            [
              106.636989,
              10.805088
            ],
            [
              106.636989,
              10.808088
            ],
            [
              106.63398900000001,
              10.808088
            ],
            [
              106.63398900000001,
              10.805088
            ]
          ]
        ]
      }
    },
    {
      "type": "Feature",
      "properties": {
        "segment_id": "SEG_0007",
        "segment_name": "SEG_0007",
        "lat": 10.7930705,
        "lon": 106.679657,
        "fallback": true,
        "congestion_level": "green",
        "data_source": "centroid_fallback",
        "congestion_color": "#00C851",
        "avg_vehicles": 12.166666666666666,
        "avg_cars": 5.0,
        "avg_motorcycles": 6.666666666666667,
        "avg_buses": 0.1666666666666666,
        "avg_trucks": 0.3333333333333333,
        "last_update": "2025-12-18 00:45:00"
      },
      "geometry": {
        "type": "Polygon",
        "coordinates": [
          [
            [
              106.67815700000001,
              10.7915705
            ],
            [
              106.681157,
              10.7915705
            ],
            [
              106.681157,
              10.7945705
            ],
            [
              106.67815700000001,
              10.7945705
            ],
            [
              106.67815700000001,
              10.7915705
            ]
          ]
        ]
      }
    },
    {
      "type": "Feature",
      "properties": {
        "segment_id": "SEG_0008",
        "segment_name": "SEG_0008",
        "lat": 10.803837,
        "lon": 106.635723,
        "fallback": true,
        "congestion_level": "green",
        "data_source": "centroid_fallback",
        "congestion_color": "#00C851",
        "avg_vehicles": 2.0,
        "avg_cars": 0.0,
        "avg_motorcycles": 0.0,
        "avg_buses": 0.0,
        "avg_trucks": 2.0,
        "last_update": "2025-12-18 01:00:00"
      },
      "geometry": {
        "type": "Polygon",
        "coordinates": [
          [
            [
              106.634223,
              10.802337
            ],
            [
              106.63722299999999,
              10.802337
            ],
            [
              106.63722299999999,
              10.805337
            ],
            [
              106.634223,
              10.805337
            ],
            [
              106.634223,
              10.802337
            ]
          ]
        ]
      }
    },
    {
      "type": "Feature",
      "properties": {
        "segment_id": "SEG_0009",
        "segment_name": "SEG_0009",
        "lat": 10.813939,
        "lon": 106.63268,
        "fallback": true,
        "congestion_level": "green",
        "data_source": "centroid_fallback",
        "congestion_color": "#00C851",
        "avg_vehicles": 1.3333333333333333,
        "avg_cars": 0.3333333333333333,
        "avg_motorcycles": 1.0,
        "avg_buses": 0.0,
        "avg_trucks": 0.0,
        "last_update": "2025-12-18 01:00:00"
      },
      "geometry": {
        "type": "Polygon",
        "coordinates": [
          [
            [
              106.63118,
              10.812439
            ],
            [
              106.63417999999999,
              10.812439
            ],
            [
              106.63417999999999,
              10.815439
            ],
            [
              106.63118,
              10.815439
            ],
            [
              106.63118,
              10.812439
            ]
          ]
        ]
      }
    },
    {
      "type": "Feature",
      "properties": {
        "segment_id": "SEG_0010",
        "segment_name": "SEG_0010",
        "lat": 10.810766,
        "lon": 106.632513,
        "fallback": true,
        "congestion_level": "green",
        "data_source": "centroid_fallback",
        "congestion_color": "#00C851",
        "avg_vehicles": 3.0,
        "avg_cars": 1.0,
        "avg_motorcycles": 0.0,
        "avg_buses": 1.0,
        "avg_trucks": 1.0,
        "last_update": "2025-12-18 01:00:00"
      },
      "geometry": {
        "type": "Polygon",
        "coordinates": [
          [
            [
              106.63101300000001,
              10.809266
            ],
            [
              106.634013,
              10.809266
            ],
            [
              106.634013,
              10.812266
            ],
            [
              106.63101300000001,
              10.812266
            ],
            [
              106.63101300000001,
              10.809266
            ]
          ]
        ]
      }
    },
    {
      "type": "Feature",
      "properties": {
        "segment_id": "SEG_0011",
        "segment_name": "SEG_0011",
        "lat": 10.7904145,
        "lon": 106.68375,
        "fallback": true,
        "congestion_level": "green",
        "data_source": "centroid_fallback",
        "congestion_color": "#00C851",
        "avg_vehicles": 7.083333333333333,
        "avg_cars": 3.0,
        "avg_motorcycles": 3.4166666666666665,
        "avg_buses": 0.3333333333333333,
        "avg_trucks": 0.3333333333333333,
        "last_update": "2025-12-18 00:45:00"
      },
      "geometry": {
        "type": "Polygon",
        "coordinates": [
          [
            [
              106.68225000000001,
              10.7889145
            ],
            [
              106.68525,
              10.7889145
            ],
            [
              106.68525,
              10.7919145
            ],
            [
              106.68225000000001,
              10.7919145
            ],
            [
              106.68225000000001,
              10.7889145
            ]
          ]
        ]
      }
    },
    {
      "type": "Feature",
      "properties": {
        "segment_id": "SEG_0012",
        "segment_name": "SEG_0012",
        "lat": 10.7950365,
        "lon": 106.655309,
        "fallback": true,
        "congestion_level": "green",
        "data_source": "centroid_fallback",
        "congestion_color": "#00C851",
        "avg_vehicles": 5.5,
        "avg_cars": 3.0,
        "avg_motorcycles": 2.0,
        "avg_buses": 0.0,
        "avg_trucks": 0.5,
        "last_update": "2025-12-18 01:00:00"
      },
      "geometry": {
        "type": "Polygon",
        "coordinates": [
          [
            [
              106.65380900000001,
              10.7935365
            ],
            [
              106.656809,
              10.7935365
            ],
            [
              106.656809,
              10.7965365
            ],
            [
              106.65380900000001,
              10.7965365
            ],
            [
              106.65380900000001,
              10.7935365
            ]
          ]
        ]
      }
    },
    {
      "type": "Feature",
      "properties": {
        "segment_id": "SEG_0013",
        "segment_name": "SEG_0013",
        "lat": 10.796513,
        "lon": 106.674866,
        "fallback": true,
        "congestion_level": "green",
        "data_source": "centroid_fallback",
        "congestion_color": "#00C851",
        "avg_vehicles": 7.333333333333333,
        "avg_cars": 4.333333333333333,
        "avg_motorcycles": 1.0,
        "avg_buses": 0.6666666666666666,
        "avg_trucks": 1.3333333333333333,
        "last_update": "2025-12-18 00:45:00"
      },
      "geometry": {
        "type": "Polygon",
        "coordinates": [
          [
            [
              106.673366,
              10.795012999999999
            ],
            [
              106.67636599999999,
              10.795012999999999
            ],
            [
              106.67636599999999,
              10.798013
            ],
            [
              106.673366,
              10.798013
            ],
            [
              106.673366,
              10.795012999999999
            ]
          ]
        ]
      }
    },
    {
      "type": "Feature",
      "properties": {
        "segment_id": "SEG_0014",
        "segment_name": "SEG_0014",
        "lat": 10.7836645,
        "lon": 106.6916595,
        "fallback": true,
        "congestion_level": "green",
        "data_source": "centroid_fallback",
        "congestion_color": "#00C851",
        "avg_vehicles": 11.75,
        "avg_cars": 4.75,
        "avg_motorcycles": 6.25,
        "avg_buses": 0.25,
        "avg_trucks": 0.5,
        "last_update": "2025-12-18 07:30:00"
      },
      "geometry": {
        "type": "Polygon",
        "coordinates": [
          [
            [
              106.69015950000001,
              10.7821645
            ],
            [
              106.6931595,
              10.7821645
            ],
            [
              106.6931595,
              10.7851645
            ],
            [
              106.69015950000001,
              10.7851645
            ],
            [
              106.69015950000001,
              10.7821645
            ]
          ]
        ]
      }
    },
    {
      "type": "Feature",
      "properties": {
        "segment_id": "SEG_0015",
        "segment_name": "SEG_0015",
        "lat": 10.780816857142856,
        "lon": 106.69537385714284,
        "fallback": true,
        "congestion_level": "green",
        "data_source": "centroid_fallback",
        "congestion_color": "#00C851",
        "avg_vehicles": 12.466666666666669,
        "avg_cars": 3.533333333333333,
        "avg_motorcycles": 8.4,
        "avg_buses": 0.0666666666666666,
        "avg_trucks": 0.4666666666666667,
        "last_update": "2025-12-18 07:30:00"
      },
      "geometry": {
        "type": "Polygon",
        "coordinates": [
          [
            [
              106.69387385714285,
              10.779316857142856
            ],
            [
              106.69687385714283,
              10.779316857142856
            ],
            [
              106.69687385714283,
              10.782316857142856
            ],
            [
              106.69387385714285,
              10.782316857142856
            ],
            [
              106.69387385714285,
              10.779316857142856
            ]
          ]
        ]
      }
    },
    {
      "type": "Feature",
      "properties": {
        "segment_id": "SEG_0016",
        "segment_name": "SEG_0016",
        "lat": 10.794442,
        "lon": 106.677617,
        "fallback": true,
        "congestion_level": "green",
        "data_source": "centroid_fallback",
        "congestion_color": "#00C851",
        "avg_vehicles": 0.0,
        "avg_cars": 0.0,
        "avg_motorcycles": 0.0,
        "avg_buses": 0.0,
        "avg_trucks": 0.0,
        "last_update": "2025-12-18 00:45:00"
      },
      "geometry": {
        "type": "Polygon",
        "coordinates": [
          [
            [
              106.676117,
              10.792942
            ],
            [
              106.67911699999999,
              10.792942
            ],
            [
              106.67911699999999,
              10.795942
            ],
            [
              106.676117,
              10.795942
            ],
            [
              106.676117,
              10.792942
            ]
          ]
        ]
      }
    },
    {
      "type": "Feature",
      "properties": {
        "segment_id": "SEG_0017",
        "segment_name": "SEG_0017",
        "lat": 10.804656,
        "lon": 106.668644,
        "fallback": true,
        "congestion_level": "green",
        "data_source": "centroid_fallback",
        "congestion_color": "#00C851",
        "avg_vehicles": 5.666666666666667,
        "avg_cars": 2.0,
        "avg_motorcycles": 3.0,
        "avg_buses": 0.3333333333333333,
        "avg_trucks": 0.3333333333333333,
        "last_update": "2025-12-18 00:45:00"
      },
      "geometry": {
        "type": "Polygon",
        "coordinates": [
          [
            [
              106.66714400000001,
              10.803156
            ],
            [
              106.670144,
              10.803156
            ],
            [
              106.670144,
              10.806156
            ],
            [
              106.66714400000001,
              10.806156
            ],
            [
              106.66714400000001,
              10.803156
            ]
          ]
        ]
      }
    },
    {
      "type": "Feature",
      "properties": {
        "segment_id": "SEG_0018",
        "segment_name": "SEG_0018",
        "lat": 10.80858,
        "lon": 106.67115,
        "fallback": true,
        "congestion_level": "green",
        "data_source": "centroid_fallback",
        "congestion_color": "#00C851",
        "avg_vehicles": 3.0,
        "avg_cars": 1.3333333333333333,
        "avg_motorcycles": 1.6666666666666667,
        "avg_buses": 0.0,
        "avg_trucks": 0.0,
        "last_update": "2025-12-18 00:45:00"
      },
      "geometry": {
        "type": "Polygon",
        "coordinates": [
          [
            [
              106.66965,
              10.80708
            ],
            [
              106.67264999999999,
              10.80708
            ],
            [
              106.67264999999999,
              10.81008
            ],
            [
              106.66965,
              10.81008
            ],
            [
              106.66965,
              10.80708
            ]
          ]
        ]
      }
    },
    {
      "type": "Feature",
      "properties": {
        "segment_id": "SEG_0019",
        "segment_name": "SEG_0019",
        "lat": 10.836691,
        "lon": 106.636086,
        "fallback": true,
        "congestion_level": "green",
        "data_source": "centroid_fallback",
        "congestion_color": "#00C851",
        "avg_vehicles": 0.0,
        "avg_cars": 0.0,
        "avg_motorcycles": 0.0,
        "avg_buses": 0.0,
        "avg_trucks": 0.0,
        "last_update": "2025-12-18 01:00:00"
      },
      "geometry": {
        "type": "Polygon",
        "coordinates": [
          [
            [
              106.63458600000001,
              10.835191
            ],
            [
              106.637586,
              10.835191
            ],
            [
              106.637586,
              10.838191
            ],
            [
              106.63458600000001,
              10.838191
            ],
            [
              106.63458600000001,
              10.835191
            ]
          ]
        ]
      }
    },
    {
      "type": "Feature",
      "properties": {
        "segment_id": "SEG_0020",
        "segment_name": "SEG_0020",
        "lat": 10.811001,
        "lon": 106.7126754,
        "fallback": true,
        "congestion_level": "yellow",
        "data_source": "centroid_fallback",
        "congestion_color": "#ffbb33",
        "avg_vehicles": 19.133333333333333,
        "avg_cars": 5.4,
        "avg_motorcycles": 12.2,
        "avg_buses": 0.8666666666666667,
        "avg_trucks": 0.6666666666666666,
        "last_update": "2025-12-18 07:30:00"
      },
      "geometry": {
        "type": "Polygon",
        "coordinates": [
          [
            [
              106.7111754,
              10.809501
            ],
            [
              106.71417539999999,
              10.809501
            ],
            [
              106.71417539999999,
              10.812501
            ],
            [
              106.7111754,
              10.812501
            ],
            [
              106.7111754,
              10.809501
            ]
          ]
        ]
      }
    },
    {
      "type": "Feature",
      "properties": {
        "segment_id": "SEG_0021",
        "segment_name": "SEG_0021",
        "lat": 10.817187,
        "lon": 106.712168,
        "fallback": true,
        "congestion_level": "yellow",
        "data_source": "centroid_fallback",
        "congestion_color": "#ffbb33",
        "avg_vehicles": 22.5,
        "avg_cars": 6.833333333333333,
        "avg_motorcycles": 13.833333333333334,
        "avg_buses": 0.6666666666666666,
        "avg_trucks": 1.1666666666666667,
        "last_update": "2025-12-18 07:30:00"
      },
      "geometry": {
        "type": "Polygon",
        "coordinates": [
          [
            [
              106.71066800000001,
              10.815687
            ],
            [
              106.713668,
              10.815687
            ],
            [
              106.713668,
              10.818687
            ],
            [
              106.71066800000001,
              10.818687
            ],
            [
              106.71066800000001,
              10.815687
            ]
          ]
        ]
      }
    },
    {
      "type": "Feature",
      "properties": {
        "segment_id": "SEG_0022",
        "segment_name": "SEG_0022",
        "lat": 10.753629,
        "lon": 106.684156,
        "fallback": true,
        "congestion_level": "green",
        "data_source": "centroid_fallback",
        "congestion_color": "#00C851",
        "avg_vehicles": 0.0,
        "avg_cars": 0.0,
        "avg_motorcycles": 0.0,
        "avg_buses": 0.0,
        "avg_trucks": 0.0,
        "last_update": "2025-12-18 01:00:00"
      },
      "geometry": {
        "type": "Polygon",
        "coordinates": [
          [
            [
              106.68265600000001,
              10.752129
            ],
            [
              106.685656,
              10.752129
            ],
            [
              106.685656,
              10.755129
            ],
            [
              106.68265600000001,
              10.755129
            ],
            [
              106.68265600000001,
              10.752129
            ]
          ]
        ]
      }
    },
    {
      "type": "Feature",
      "properties": {
        "segment_id": "SEG_0023",
        "segment_name": "SEG_0023",
        "lat": 10.802034,
        "lon": 106.708803,
        "fallback": true,
        "congestion_level": "yellow",
        "data_source": "centroid_fallback",
        "congestion_color": "#ffbb33",
        "avg_vehicles": 22.0,
        "avg_cars": 6.0,
        "avg_motorcycles": 12.0,
        "avg_buses": 2.0,
        "avg_trucks": 2.0,
        "last_update": "2025-12-18 07:30:00"
      },
      "geometry": {
        "type": "Polygon",
        "coordinates": [
          [
            [
              106.70730300000001,
              10.800534
            ],
            [
              106.710303,
              10.800534
            ],
            [
              106.710303,
              10.803534
            ],
            [
              106.70730300000001,
              10.803534
            ],
            [
              106.70730300000001,
              10.800534
            ]
          ]
        ]
      }
    },
    {
      "type": "Feature",
      "properties": {
        "segment_id": "SEG_0024",
        "segment_name": "SEG_0024",
        "lat": 10.7557525,
        "lon": 106.683414,
        "fallback": true,
        "congestion_level": "green",
        "data_source": "centroid_fallback",
        "congestion_color": "#00C851",
        "avg_vehicles": 9.5,
        "avg_cars": 7.5,
        "avg_motorcycles": 1.5,
        "avg_buses": 0.0,
        "avg_trucks": 0.5,
        "last_update": "2025-12-18 01:00:00"
      },
      "geometry": {
        "type": "Polygon",
        "coordinates": [
          [
            [
              106.681914,
              10.7542525
            ],
            [
              106.68491399999999,
              10.7542525
            ],
            [
              106.68491399999999,
              10.7572525
            ],
            [
              106.681914,
              10.7572525
            ],
            [
              106.681914,
              10.7542525
            ]
          ]
        ]
      }
    },
    {
      "type": "Feature",
      "properties": {
        "segment_id": "SEG_0025",
        "segment_name": "SEG_0025",
        "lat": 10.794966,
        "lon": 106.652912,
        "fallback": true,
        "congestion_level": "green",
        "data_source": "centroid_fallback",
        "congestion_color": "#00C851",
        "avg_vehicles": 10.0,
        "avg_cars": 4.0,
        "avg_motorcycles": 5.0,
        "avg_buses": 1.0,
        "avg_trucks": 0.0,
        "last_update": "2025-12-18 01:00:00"
      },
      "geometry": {
        "type": "Polygon",
        "coordinates": [
          [
            [
              106.65141200000001,
              10.793466
            ],
            [
              106.654412,
              10.793466
            ],
            [
              106.654412,
              10.796466
            ],
            [
              106.65141200000001,
              10.796466
            ],
            [
              106.65141200000001,
              10.793466
            ]
          ]
        ]
      }
    },
    {
      "type": "Feature",
      "properties": {
        "segment_id": "SEG_0026",
        "segment_name": "SEG_0026",
        "lat": 10.76703825,
        "lon": 106.67600975,
        "fallback": true,
        "congestion_level": "yellow",
        "data_source": "centroid_fallback",
        "congestion_color": "#ffbb33",
        "avg_vehicles": 17.75,
        "avg_cars": 4.0,
        "avg_motorcycles": 12.25,
        "avg_buses": 0.25,
        "avg_trucks": 1.25,
        "last_update": "2025-12-18 07:30:00"
      },
      "geometry": {
        "type": "Polygon",
        "coordinates": [
          [
            [
              106.67450975000001,
              10.76553825
            ],
            [
              106.67750975,
              10.76553825
            ],
            [
              106.67750975,
              10.76853825
            ],
            [
              106.67450975000001,
              10.76853825
            ],
            [
              106.67450975000001,
              10.76553825
            ]
          ]
        ]
      }
    },
    {
      "type": "Feature",
      "properties": {
        "segment_id": "SEG_0027",
        "segment_name": "SEG_0027",
        "lat": 10.777867,
        "lon": 106.681375,
        "fallback": true,
        "congestion_level": "green",
        "data_source": "centroid_fallback",
        "congestion_color": "#00C851",
        "avg_vehicles": 10.5,
        "avg_cars": 2.1666666666666665,
        "avg_motorcycles": 7.833333333333333,
        "avg_buses": 0.0,
        "avg_trucks": 0.5,
        "last_update": "2025-12-18 00:45:00"
      },
      "geometry": {
        "type": "Polygon",
        "coordinates": [
          [
            [
              106.67987500000001,
              10.776367
            ],
            [
              106.682875,
              10.776367
            ],
            [
              106.682875,
              10.779367
            ],
            [
              106.67987500000001,
              10.779367
            ],
            [
              106.67987500000001,
              10.776367
            ]
          ]
        ]
      }
    },
    {
      "type": "Feature",
      "properties": {
        "segment_id": "SEG_0028",
        "segment_name": "SEG_0028",
        "lat": 10.79859,
        "lon": 106.704997,
        "fallback": true,
        "congestion_level": "green",
        "data_source": "centroid_fallback",
        "congestion_color": "#00C851",
        "avg_vehicles": 13.0,
        "avg_cars": 2.0,
        "avg_motorcycles": 10.0,
        "avg_buses": 0.0,
        "avg_trucks": 1.0,
        "last_update": "2025-12-18 07:30:00"
      },
      "geometry": {
        "type": "Polygon",
        "coordinates": [
          [
            [
              106.70349700000001,
              10.79709
            ],
            [
              106.706497,
              10.79709
            ],
            [
              106.706497,
              10.80009
            ],
            [
              106.70349700000001,
              10.80009
            ],
            [
              106.70349700000001,
              10.79709
            ]
          ]
        ]
      }
    },
    {
      "type": "Feature",
      "properties": {
        "segment_id": "SEG_0029",
        "segment_name": "SEG_0029",
        "lat": 10.779529,
        "lon": 106.68213,
        "fallback": true,
        "congestion_level": "green",
        "data_source": "centroid_fallback",
        "congestion_color": "#00C851",
        "avg_vehicles": 6.333333333333333,
        "avg_cars": 0.6666666666666666,
        "avg_motorcycles": 5.666666666666667,
        "avg_buses": 0.0,
        "avg_trucks": 0.0,
        "last_update": "2025-12-18 00:45:00"
      },
      "geometry": {
        "type": "Polygon",
        "coordinates": [
          [
            [
              106.68063000000001,
              10.778029
            ],
            [
              106.68363,
              10.778029
            ],
            [
              106.68363,
              10.781029
            ],
            [
              106.68063000000001,
              10.781029
            ],
            [
              106.68063000000001,
              10.778029
            ]
          ]
        ]
      }
    },
    {
      "type": "Feature",
      "properties": {
        "segment_id": "SEG_0030",
        "segment_name": "SEG_0030",
        "lat": 10.782496,
        "lon": 106.683633,
        "fallback": true,
        "congestion_level": "green",
        "data_source": "centroid_fallback",
        "congestion_color": "#00C851",
        "avg_vehicles": 4.0,
        "avg_cars": 1.6666666666666667,
        "avg_motorcycles": 2.333333333333333,
        "avg_buses": 0.0,
        "avg_trucks": 0.0,
        "last_update": "2025-12-18 00:45:00"
      },
      "geometry": {
        "type": "Polygon",
        "coordinates": [
          [
            [
              106.68213300000001,
              10.780996
            ],
            [
              106.685133,
              10.780996
            ],
            [
              106.685133,
              10.783996
            ],
            [
              106.68213300000001,
              10.783996
            ],
            [
              106.68213300000001,
              10.780996
            ]
          ]
        ]
      }
    },
    {
      "type": "Feature",
      "properties": {
        "segment_id": "SEG_0031",
        "segment_name": "SEG_0031",
        "lat": 10.790535,
        "lon": 106.697494,
        "fallback": true,
        "congestion_level": "yellow",
        "data_source": "centroid_fallback",
        "congestion_color": "#ffbb33",
        "avg_vehicles": 19.0,
        "avg_cars": 7.0,
        "avg_motorcycles": 10.0,
        "avg_buses": 2.0,
        "avg_trucks": 0.0,
        "last_update": "2025-12-18 07:30:00"
      },
      "geometry": {
        "type": "Polygon",
        "coordinates": [
          [
            [
              106.69599400000001,
              10.789035
            ],
            [
              106.698994,
              10.789035
            ],
            [
              106.698994,
              10.792035
            ],
            [
              106.69599400000001,
              10.792035
            ],
            [
              106.69599400000001,
              10.789035
            ]
          ]
        ]
      }
    },
    {
      "type": "Feature",
      "properties": {
        "segment_id": "SEG_0032",
        "segment_name": "SEG_0032",
        "lat": 10.796689,
        "lon": 106.672708,
        "fallback": true,
        "congestion_level": "green",
        "data_source": "centroid_fallback",
        "congestion_color": "#00C851",
        "avg_vehicles": 5.666666666666667,
        "avg_cars": 4.0,
        "avg_motorcycles": 1.0,
        "avg_buses": 0.3333333333333333,
        "avg_trucks": 0.3333333333333333,
        "last_update": "2025-12-18 00:45:00"
      },
      "geometry": {
        "type": "Polygon",
        "coordinates": [
          [
            [
              106.67120800000001,
              10.795189
            ],
            [
              106.674208,
              10.795189
            ],
            [
              106.674208,
              10.798189
            ],
            [
              106.67120800000001,
              10.798189
            ],
            [
              106.67120800000001,
              10.795189
            ]
          ]
        ]
      }
    },
    {
      "type": "Feature",
      "properties": {
        "segment_id": "SEG_0033",
        "segment_name": "SEG_0033",
        "lat": 10.784591,
        "lon": 106.699668,
        "fallback": true,
        "congestion_level": "yellow",
        "data_source": "centroid_fallback",
        "congestion_color": "#ffbb33",
        "avg_vehicles": 19.5,
        "avg_cars": 5.5,
        "avg_motorcycles": 13.0,
        "avg_buses": 0.5,
        "avg_trucks": 0.5,
        "last_update": "2025-12-18 07:30:00"
      },
      "geometry": {
        "type": "Polygon",
        "coordinates": [
          [
            [
              106.69816800000001,
              10.783091
            ],
            [
              106.701168,
              10.783091
            ],
            [
              106.701168,
              10.786091
            ],
            [
              106.69816800000001,
              10.786091
            ],
            [
              106.69816800000001,
              10.783091
            ]
          ]
        ]
      }
    },
    {
      "type": "Feature",
      "properties": {
        "segment_id": "SEG_0034",
        "segment_name": "SEG_0034",
        "lat": 10.779097,
        "lon": 106.697404,
        "fallback": true,
        "congestion_level": "green",
        "data_source": "centroid_fallback",
        "congestion_color": "#00C851",
        "avg_vehicles": 0.0,
        "avg_cars": 0.0,
        "avg_motorcycles": 0.0,
        "avg_buses": 0.0,
        "avg_trucks": 0.0,
        "last_update": "2025-12-18 00:45:00"
      },
      "geometry": {
        "type": "Polygon",
        "coordinates": [
          [
            [
              106.69590400000001,
              10.777597
            ],
            [
              106.698904,
              10.777597
            ],
            [
              106.698904,
              10.780597
            ],
            [
              106.69590400000001,
              10.780597
            ],
            [
              106.69590400000001,
              10.777597
            ]
          ]
        ]
      }
    },
    {
      "type": "Feature",
      "properties": {
        "segment_id": "SEG_0035",
        "segment_name": "SEG_0035",
        "lat": 10.786587,
        "lon": 106.701597,
        "fallback": true,
        "congestion_level": "yellow",
        "data_source": "centroid_fallback",
        "congestion_color": "#ffbb33",
        "avg_vehicles": 17.0,
        "avg_cars": 4.0,
        "avg_motorcycles": 13.0,
        "avg_buses": 0.0,
        "avg_trucks": 0.0,
        "last_update": "2025-12-18 07:30:00"
      },
      "geometry": {
        "type": "Polygon",
        "coordinates": [
          [
            [
              106.70009700000001,
              10.785087
            ],
            [
              106.703097,
              10.785087
            ],
            [
              106.703097,
              10.788087
            ],
            [
              106.70009700000001,
              10.788087
            ],
            [
              106.70009700000001,
              10.785087
            ]
          ]
        ]
      }
    },
    {
      "type": "Feature",
      "properties": {
        "segment_id": "SEG_0036",
        "segment_name": "SEG_0036",
        "lat": 10.788247,
        "lon": 106.704055,
        "fallback": true,
        "congestion_level": "yellow",
        "data_source": "centroid_fallback",
        "congestion_color": "#ffbb33",
        "avg_vehicles": 21.5,
        "avg_cars": 6.5,
        "avg_motorcycles": 14.0,
        "avg_buses": 0.25,
        "avg_trucks": 0.75,
        "last_update": "2025-12-18 07:30:00"
      },
      "geometry": {
        "type": "Polygon",
        "coordinates": [
          [
            [
              106.702555,
              10.786747
            ],
            [
              106.70555499999999,
              10.786747
            ],
            [
              106.70555499999999,
              10.789747
            ],
            [
              106.702555,
              10.789747
            ],
            [
              106.702555,
              10.786747
            ]
          ]
        ]
      }
    },
    {
      "type": "Feature",
      "properties": {
        "segment_id": "SEG_0037",
        "segment_name": "SEG_0037",
        "lat": 10.767909,
        "lon": 106.68546,
        "fallback": true,
        "congestion_level": "yellow",
        "data_source": "centroid_fallback",
        "congestion_color": "#ffbb33",
        "avg_vehicles": 21.666666666666668,
        "avg_cars": 3.333333333333333,
        "avg_motorcycles": 18.33333333333333,
        "avg_buses": 0.0,
        "avg_trucks": 0.0,
        "last_update": "2025-12-18 07:30:00"
      },
      "geometry": {
        "type": "Polygon",
        "coordinates": [
          [
            [
              106.68396000000001,
              10.766409
            ],
            [
              106.68696,
              10.766409
            ],
            [
              106.68696,
              10.769409
            ],
            [
              106.68396000000001,
              10.769409
            ],
            [
              106.68396000000001,
              10.766409
            ]
          ]
        ]
      }
    },
    {
      "type": "Feature",
      "properties": {
        "segment_id": "SEG_0038",
        "segment_name": "SEG_0038",
        "lat": 10.772601222222224,
        "lon": 106.6873918888889,
        "fallback": true,
        "congestion_level": "yellow",
        "data_source": "centroid_fallback",
        "congestion_color": "#ffbb33",
        "avg_vehicles": 18.807692307692307,
        "avg_cars": 4.0,
        "avg_motorcycles": 13.653846153846152,
        "avg_buses": 0.1923076923076923,
        "avg_trucks": 0.9615384615384616,
        "last_update": "2025-12-18 07:30:00"
      },
      "geometry": {
        "type": "Polygon",
        "coordinates": [
          [
            [
              106.6858918888889,
              10.771101222222224
            ],
            [
              106.68889188888889,
              10.771101222222224
            ],
            [
              106.68889188888889,
              10.774101222222225
            ],
            [
              106.6858918888889,
              10.774101222222225
            ],
            [
              106.6858918888889,
              10.771101222222224
            ]
          ]
        ]
      }
    },
    {
      "type": "Feature",
      "properties": {
        "segment_id": "SEG_0039",
        "segment_name": "SEG_0039",
        "lat": 10.766331,
        "lon": 106.678641,
        "fallback": true,
        "congestion_level": "yellow",
        "data_source": "centroid_fallback",
        "congestion_color": "#ffbb33",
        "avg_vehicles": 22.0,
        "avg_cars": 4.0,
        "avg_motorcycles": 17.0,
        "avg_buses": 0.0,
        "avg_trucks": 1.0,
        "last_update": "2025-12-18 07:30:00"
      },
      "geometry": {
        "type": "Polygon",
        "coordinates": [
          [
            [
              106.677141,
              10.764831
            ],
            [
              106.68014099999999,
              10.764831
            ],
            [
              106.68014099999999,
              10.767831
            ],
            [
              106.677141,
              10.767831
            ],
            [
              106.677141,
              10.764831
            ]
          ]
        ]
      }
    },
    {
      "type": "Feature",
      "properties": {
        "segment_id": "SEG_0040",
        "segment_name": "SEG_0040",
        "lat": 10.772718,
        "lon": 106.679174,
        "fallback": true,
        "congestion_level": "green",
        "data_source": "centroid_fallback",
        "congestion_color": "#00C851",
        "avg_vehicles": 8.666666666666666,
        "avg_cars": 0.6666666666666666,
        "avg_motorcycles": 8.0,
        "avg_buses": 0.0,
        "avg_trucks": 0.0,
        "last_update": "2025-12-18 00:45:00"
      },
      "geometry": {
        "type": "Polygon",
        "coordinates": [
          [
            [
              106.67767400000001,
              10.771218
            ],
            [
              106.680674,
              10.771218
            ],
            [
              106.680674,
              10.774218
            ],
            [
              106.67767400000001,
              10.774218
            ],
            [
              106.67767400000001,
              10.771218
            ]
          ]
        ]
      }
    },
    {
      "type": "Feature",
      "properties": {
        "segment_id": "SEG_0041",
        "segment_name": "SEG_0041",
        "lat": 10.80653,
        "lon": 106.712634,
        "fallback": true,
        "congestion_level": "yellow",
        "data_source": "centroid_fallback",
        "congestion_color": "#ffbb33",
        "avg_vehicles": 17.666666666666668,
        "avg_cars": 3.333333333333333,
        "avg_motorcycles": 13.666666666666666,
        "avg_buses": 0.6666666666666666,
        "avg_trucks": 0.0,
        "last_update": "2025-12-18 07:30:00"
      },
      "geometry": {
        "type": "Polygon",
        "coordinates": [
          [
            [
              106.711134,
              10.80503
            ],
            [
              106.71413399999999,
              10.80503
            ],
            [
              106.71413399999999,
              10.80803
            ],
            [
              106.711134,
              10.80803
            ],
            [
              106.711134,
              10.80503
            ]
          ]
        ]
      }
    },
    {
      "type": "Feature",
      "properties": {
        "segment_id": "SEG_0042",
        "segment_name": "SEG_0042",
        "lat": 10.792779,
        "lon": 106.707398,
        "fallback": true,
        "congestion_level": "red",
        "data_source": "centroid_fallback",
        "congestion_color": "#ff4444",
        "avg_vehicles": 26.0,
        "avg_cars": 3.0,
        "avg_motorcycles": 23.0,
        "avg_buses": 0.0,
        "avg_trucks": 0.0,
        "last_update": "2025-12-18 07:30:00"
      },
      "geometry": {
        "type": "Polygon",
        "coordinates": [
          [
            [
              106.705898,
              10.791279
            ],
            [
              106.70889799999999,
              10.791279
            ],
            [
              106.70889799999999,
              10.794279
            ],
            [
              106.705898,
              10.794279
            ],
            [
              106.705898,
              10.791279
            ]
          ]
        ]
      }
    },
    {
      "type": "Feature",
      "properties": {
        "segment_id": "SEG_0043",
        "segment_name": "SEG_0043",
        "lat": 10.7846395,
        "lon": 106.6839355,
        "fallback": true,
        "congestion_level": "green",
        "data_source": "centroid_fallback",
        "congestion_color": "#00C851",
        "avg_vehicles": 5.5,
        "avg_cars": 1.8333333333333333,
        "avg_motorcycles": 3.5,
        "avg_buses": 0.0,
        "avg_trucks": 0.1666666666666666,
        "last_update": "2025-12-18 00:45:00"
      },
      "geometry": {
        "type": "Polygon",
        "coordinates": [
          [
            [
              106.68243550000001,
              10.7831395
            ],
            [
              106.6854355,
              10.7831395
            ],
            [
              106.6854355,
              10.7861395
            ],
            [
              106.68243550000001,
              10.7861395
            ],
            [
              106.68243550000001,
              10.7831395
            ]
          ]
        ]
      }
    },
    {
      "type": "Feature",
      "properties": {
        "segment_id": "SEG_0044",
        "segment_name": "SEG_0044",
        "lat": 10.770044,
        "lon": 106.682118,
        "fallback": true,
        "congestion_level": "green",
        "data_source": "centroid_fallback",
        "congestion_color": "#00C851",
        "avg_vehicles": 4.0,
        "avg_cars": 1.6666666666666667,
        "avg_motorcycles": 2.333333333333333,
        "avg_buses": 0.0,
        "avg_trucks": 0.0,
        "last_update": "2025-12-18 00:45:00"
      },
      "geometry": {
        "type": "Polygon",
        "coordinates": [
          [
            [
              106.68061800000001,
              10.768544
            ],
            [
              106.683618,
              10.768544
            ],
            [
              106.683618,
              10.771544
            ],
            [
              106.68061800000001,
              10.771544
            ],
            [
              106.68061800000001,
              10.768544
            ]
          ]
        ]
      }
    },
    {
      "type": "Feature",
      "properties": {
        "segment_id": "SEG_0045",
        "segment_name": "SEG_0045",
        "lat": 10.767864,
        "lon": 106.671538,
        "fallback": true,
        "congestion_level": "green",
        "data_source": "centroid_fallback",
        "congestion_color": "#00C851",
        "avg_vehicles": 13.0,
        "avg_cars": 4.0,
        "avg_motorcycles": 9.0,
        "avg_buses": 0.0,
        "avg_trucks": 0.0,
        "last_update": "2025-12-18 07:30:00"
      },
      "geometry": {
        "type": "Polygon",
        "coordinates": [
          [
            [
              106.670038,
              10.766364
            ],
            [
              106.67303799999999,
              10.766364
            ],
            [
              106.67303799999999,
              10.769364
            ],
            [
              106.670038,
              10.769364
            ],
            [
              106.670038,
              10.766364
            ]
          ]
        ]
      }
    },
    {
      "type": "Feature",
      "properties": {
        "segment_id": "SEG_0046",
        "segment_name": "SEG_0046",
        "lat": 10.7695165,
        "lon": 106.6658855,
        "fallback": true,
        "congestion_level": "green",
        "data_source": "centroid_fallback",
        "congestion_color": "#00C851",
        "avg_vehicles": 0.5,
        "avg_cars": 0.5,
        "avg_motorcycles": 0.0,
        "avg_buses": 0.0,
        "avg_trucks": 0.0,
        "last_update": "2025-12-18 01:00:00"
      },
      "geometry": {
        "type": "Polygon",
        "coordinates": [
          [
            [
              106.66438550000001,
              10.7680165
            ],
            [
              106.6673855,
              10.7680165
            ],
            [
              106.6673855,
              10.7710165
            ],
            [
              106.66438550000001,
              10.7710165
            ],
            [
              106.66438550000001,
              10.7680165
            ]
          ]
        ]
      }
    },
    {
      "type": "Feature",
      "properties": {
        "segment_id": "SEG_0047",
        "segment_name": "SEG_0047",
        "lat": 10.785824,
        "lon": 106.641599,
        "fallback": true,
        "congestion_level": "yellow",
        "data_source": "centroid_fallback",
        "congestion_color": "#ffbb33",
        "avg_vehicles": 16.0,
        "avg_cars": 0.0,
        "avg_motorcycles": 15.0,
        "avg_buses": 0.0,
        "avg_trucks": 1.0,
        "last_update": "2025-12-18 07:30:00"
      },
      "geometry": {
        "type": "Polygon",
        "coordinates": [
          [
            [
              106.640099,
              10.784324
            ],
            [
              106.64309899999999,
              10.784324
            ],
            [
              106.64309899999999,
              10.787324
            ],
            [
              106.640099,
              10.787324
            ],
            [
              106.640099,
              10.784324
            ]
          ]
        ]
      }
    },
    {
      "type": "Feature",
      "properties": {
        "segment_id": "SEG_0048",
        "segment_name": "SEG_0048",
        "lat": 10.798063,
        "lon": 106.643757,
        "fallback": true,
        "congestion_level": "green",
        "data_source": "centroid_fallback",
        "congestion_color": "#00C851",
        "avg_vehicles": 4.0,
        "avg_cars": 1.0,
        "avg_motorcycles": 2.0,
        "avg_buses": 0.0,
        "avg_trucks": 1.0,
        "last_update": "2025-12-18 01:00:00"
      },
      "geometry": {
        "type": "Polygon",
        "coordinates": [
          [
            [
              106.642257,
              10.796563
            ],
            [
              106.64525699999999,
              10.796563
            ],
            [
              106.64525699999999,
              10.799563000000001
            ],
            [
              106.642257,
              10.799563000000001
            ],
            [
              106.642257,
              10.796563
            ]
          ]
        ]
      }
    },
    {
      "type": "Feature",
      "properties": {
        "segment_id": "SEG_0049",
        "segment_name": "SEG_0049",
        "lat": 10.823473,
        "lon": 106.629778,
        "fallback": true,
        "congestion_level": "green",
        "data_source": "centroid_fallback",
        "congestion_color": "#00C851",
        "avg_vehicles": 7.0,
        "avg_cars": 5.5,
        "avg_motorcycles": 1.0,
        "avg_buses": 0.0,
        "avg_trucks": 0.5,
        "last_update": "2025-12-18 01:00:00"
      },
      "geometry": {
        "type": "Polygon",
        "coordinates": [
          [
            [
              106.62827800000001,
              10.821973
            ],
            [
              106.631278,
              10.821973
            ],
            [
              106.631278,
              10.824973
            ],
            [
              106.62827800000001,
              10.824973
            ],
            [
              106.62827800000001,
              10.821973
            ]
          ]
        ]
      }
    },
    {
      "type": "Feature",
      "properties": {
        "segment_id": "SEG_0050",
        "segment_name": "SEG_0050",
        "lat": 10.792666,
        "lon": 106.699286,
        "fallback": true,
        "congestion_level": "yellow",
        "data_source": "centroid_fallback",
        "congestion_color": "#ffbb33",
        "avg_vehicles": 22.0,
        "avg_cars": 7.0,
        "avg_motorcycles": 15.0,
        "avg_buses": 0.0,
        "avg_trucks": 0.0,
        "last_update": "2025-12-18 07:30:00"
      },
      "geometry": {
        "type": "Polygon",
        "coordinates": [
          [
            [
              106.69778600000001,
              10.791166
            ],
            [
              106.700786,
              10.791166
            ],
            [
              106.700786,
              10.794166
            ],
            [
              106.69778600000001,
              10.794166
            ],
            [
              106.69778600000001,
              10.791166
            ]
          ]
        ]
      }
    },
    {
      "type": "Feature",
      "properties": {
        "segment_id": "SEG_0051",
        "segment_name": "SEG_0051",
        "lat": 10.77315,
        "lon": 106.663929,
        "fallback": true,
        "congestion_level": "green",
        "data_source": "centroid_fallback",
        "congestion_color": "#00C851",
        "avg_vehicles": 1.0,
        "avg_cars": 1.0,
        "avg_motorcycles": 0.0,
        "avg_buses": 0.0,
        "avg_trucks": 0.0,
        "last_update": "2025-12-18 01:00:00"
      },
      "geometry": {
        "type": "Polygon",
        "coordinates": [
          [
            [
              106.662429,
              10.77165
            ],
            [
              106.66542899999999,
              10.77165
            ],
            [
              106.66542899999999,
              10.77465
            ],
            [
              106.662429,
              10.77465
            ],
            [
              106.662429,
              10.77165
            ]
          ]
        ]
      }
    }
  ]
}